start=new Date('2022-01-26T00:00:00.000Z').valueOf();
sats=[{"PERIOD":"95.592","TLE_LINE2":"2 48021  53.0560 183.0447 0002336  84.6418 275.4838 15.06407319 48744","SITE":"AFETR","ARG_OF_PERICENTER":"84.6418","TIME_SYSTEM":"UTC","MEAN_MOTION_DDOT":"0.0000000000000","MEAN_ANOMALY":"275.4838","OBJECT_ID":"2021-024AW","FILE":"3283711","MEAN_MOTION":"15.06407319","RCS_SIZE":"LARGE","GP_ID":"194643922","PERIAPSIS":"545.573","ELEMENT_SET_NO":"999","APOAPSIS":"548.809","ECCENTRICITY":"0.00023360","NORAD_CAT_ID":"48021","OBJECT_NAME":"STARLINK-2301","SEMIMAJOR_AXIS":"6925.326","INCLINATION":"53.0560","BSTAR":"0.00011621000000","EPHEMERIS_TYPE":"0","CLASSIFICATION_TYPE":"U","COUNTRY_CODE":"US","DECAY_DATE":null,"RA_OF_ASC_NODE":"183.0447","REF_FRAME":"TEME","TLE_LINE1":"1 48021U 21024AW  22025.75463009  .00001450  00000-0  11621-3 0  9993","MEAN_ELEMENT_THEORY":"SGP4","OBJECT_TYPE":"PAYLOAD","REV_AT_EPOCH":"4874","MEAN_MOTION_DOT":"0.00001450","EPOCH":"2022-01-25T18:06:40.039776","LAUNCH_DATE":"2021-03-24","CENTER_NAME":"EARTH"},{"OBJECT_ID":"2021-024AX","MEAN_ANOMALY":"298.1349","MEAN_MOTION_DDOT":"0.0000000000000","ARG_OF_PERICENTER":"61.9833","TIME_SYSTEM":"UTC","SITE":"AFETR","TLE_LINE2":"2 48022  53.0538 242.4501 0001913  61.9833 298.1349 15.06393175 47977","PERIOD":"95.593","PERIAPSIS":"545.910","ELEMENT_SET_NO":"999","GP_ID":"194643170","RCS_SIZE":"LARGE","MEAN_MOTION":"15.06393175","FILE":"3283711","RA_OF_ASC_NODE":"242.4501","DECAY_DATE":null,"COUNTRY_CODE":"US","SEMIMAJOR_AXIS":"6925.369","EPHEMERIS_TYPE":"0","BSTAR":"0.00001411900000","INCLINATION":"53.0538","CLASSIFICATION_TYPE":"U","OBJECT_NAME":"STARLINK-2298","APOAPSIS":"548.559","ECCENTRICITY":"0.00019130","NORAD_CAT_ID":"48022","CENTER_NAME":"EARTH","LAUNCH_DATE":"2021-03-24","OBJECT_TYPE":"PAYLOAD","REV_AT_EPOCH":"4797","MEAN_MOTION_DOT":"-0.00000071","EPOCH":"2022-01-25T21:19:03.672480","REF_FRAME":"TEME","TLE_LINE1":"1 48022U 21024AX  22025.88823695 -.00000071  00000-0  14119-4 0  9994","MEAN_ELEMENT_THEORY":"SGP4"},{"DECAY_DATE":null,"RA_OF_ASC_NODE":"242.3704","COUNTRY_CODE":"US","OBJECT_NAME":"STARLINK-2292","SEMIMAJOR_AXIS":"6925.343","INCLINATION":"53.0545","BSTAR":"-0.00001067100000","EPHEMERIS_TYPE":"0","CLASSIFICATION_TYPE":"U","APOAPSIS":"548.600","ECCENTRICITY":"0.00020110","NORAD_CAT_ID":"48023","CENTER_NAME":"EARTH","LAUNCH_DATE":"2021-03-24","REF_FRAME":"TEME","MEAN_ELEMENT_THEORY":"SGP4","TLE_LINE1":"1 48023U 21024AY  22025.90392366 -.00000441  00000-0 -10671-4 0  9995","OBJECT_TYPE":"PAYLOAD","EPOCH":"2022-01-25T21:41:39.004224","MEAN_MOTION_DOT":"-0.00000441","REV_AT_EPOCH":"4797","OBJECT_ID":"2021-024AY","MEAN_MOTION_DDOT":"0.0000000000000","MEAN_ANOMALY":"291.4628","SITE":"AFETR","ARG_OF_PERICENTER":"68.6575","TIME_SYSTEM":"UTC","PERIOD":"95.592","TLE_LINE2":"2 48023  53.0545 242.3704 0002011  68.6575 291.4628 15.06401885 47971","GP_ID":"194643420","PERIAPSIS":"545.815","ELEMENT_SET_NO":"999","MEAN_MOTION":"15.06401885","RCS_SIZE":"LARGE","FILE":"3283711"},{"COUNTRY_CODE":"US","RA_OF_ASC_NODE":"247.4801","DECAY_DATE":null,"APOAPSIS":"548.536","ECCENTRICITY":"0.00018770","NORAD_CAT_ID":"48026","SEMIMAJOR_AXIS":"6925.371","EPHEMERIS_TYPE":"0","BSTAR":"-0.00005272100000","INCLINATION":"53.0494","CLASSIFICATION_TYPE":"U","OBJECT_NAME":"STARLINK-2278","CENTER_NAME":"EARTH","MEAN_MOTION_DOT":"-0.00001067","OBJECT_TYPE":"PAYLOAD","REV_AT_EPOCH":"4784","EPOCH":"2022-01-25T21:11:47.495904","REF_FRAME":"TEME","MEAN_ELEMENT_THEORY":"SGP4","TLE_LINE1":"1 48026U 21024BB  22025.88318861 -.00001067  00000-0 -52721-4 0  9990","LAUNCH_DATE":"2021-03-24","MEAN_ANOMALY":"291.1475","MEAN_MOTION_DDOT":"0.0000000000000","OBJECT_ID":"2021-024BB","TLE_LINE2":"2 48026  53.0494 247.4801 0001877  68.9714 291.1475 15.06392555 47844","PERIOD":"95.593","TIME_SYSTEM":"UTC","ARG_OF_PERICENTER":"68.9714","SITE":"AFETR","PERIAPSIS":"545.936","ELEMENT_SET_NO":"999","GP_ID":"194643672","FILE":"3283711","RCS_SIZE":"LARGE","MEAN_MOTION":"15.06392555"},{"OBJECT_ID":"2021-024BC","MEAN_MOTION_DDOT":"0.0000000000000","MEAN_ANOMALY":"277.7533","SITE":"AFETR","ARG_OF_PERICENTER":"82.3698","TIME_SYSTEM":"UTC","PERIOD":"95.593","TLE_LINE2":"2 48027  53.0546 222.6503 0002126  82.3698 277.7533 15.06392849 48185","GP_ID":"194644422","ELEMENT_SET_NO":"999","PERIAPSIS":"545.763","MEAN_MOTION":"15.06392849","RCS_SIZE":"LARGE","FILE":"3283711","DECAY_DATE":null,"RA_OF_ASC_NODE":"222.6503","COUNTRY_CODE":"US","OBJECT_NAME":"STARLINK-2300","BSTAR":"-0.00004438200000","CLASSIFICATION_TYPE":"U","INCLINATION":"53.0546","EPHEMERIS_TYPE":"0","SEMIMAJOR_AXIS":"6925.370","NORAD_CAT_ID":"48027","ECCENTRICITY":"0.00021260","APOAPSIS":"548.708","CENTER_NAME":"EARTH","LAUNCH_DATE":"2021-03-24","MEAN_ELEMENT_THEORY":"SGP4","TLE_LINE1":"1 48027U 21024BC  22025.84310766 -.00000943  00000-0 -44382-4 0  9999","REF_FRAME":"TEME","OBJECT_TYPE":"PAYLOAD","MEAN_MOTION_DOT":"-0.00000943","REV_AT_EPOCH":"4818","EPOCH":"2022-01-25T20:14:04.501824"},{"OBJECT_ID":"2021-024BD","MEAN_MOTION_DDOT":"0.0000000000000","MEAN_ANOMALY":"258.8296","SITE":"AFETR","ARG_OF_PERICENTER":"73.0682","TIME_SYSTEM":"UTC","PERIOD":"95.593","TLE_LINE2":"2 48028  53.0542 177.3204 0001715  73.0682 258.8296 15.06389553  3588","GP_ID":"194642671","ELEMENT_SET_NO":"999","PERIAPSIS":"546.058","MEAN_MOTION":"15.06389553","RCS_SIZE":"LARGE","FILE":"3283711","DECAY_DATE":null,"RA_OF_ASC_NODE":"177.3204","COUNTRY_CODE":"US","OBJECT_NAME":"STARLINK-2264","BSTAR":"0.00165230000000","INCLINATION":"53.0542","CLASSIFICATION_TYPE":"U","EPHEMERIS_TYPE":"0","SEMIMAJOR_AXIS":"6925.381","NORAD_CAT_ID":"48028","ECCENTRICITY":"0.00017150","APOAPSIS":"548.433","CENTER_NAME":"EARTH","LAUNCH_DATE":"2021-03-24","TLE_LINE1":"1 48028U 21024BD  22025.91667824  .00024408  00000-0  16523-2 0  9992","MEAN_ELEMENT_THEORY":"SGP4","REF_FRAME":"TEME","OBJECT_TYPE":"PAYLOAD","REV_AT_EPOCH":"358","MEAN_MOTION_DOT":"0.00024408","EPOCH":"2022-01-25T22:00:00.999936"},{"APOAPSIS":"548.542","ECCENTRICITY":"0.00018990","NORAD_CAT_ID":"48029","OBJECT_NAME":"STARLINK-2299","SEMIMAJOR_AXIS":"6925.361","INCLINATION":"53.0534","BSTAR":"-0.00002542300000","EPHEMERIS_TYPE":"0","CLASSIFICATION_TYPE":"U","COUNTRY_CODE":"US","DECAY_DATE":null,"RA_OF_ASC_NODE":"242.4881","REF_FRAME":"TEME","MEAN_ELEMENT_THEORY":"SGP4","TLE_LINE1":"1 48029U 21024BE  22025.88180047 -.00000660  00000-0 -25423-4 0  9993","REV_AT_EPOCH":"4797","OBJECT_TYPE":"PAYLOAD","MEAN_MOTION_DOT":"-0.00000660","EPOCH":"2022-01-25T21:09:47.560608","LAUNCH_DATE":"2021-03-24","CENTER_NAME":"EARTH","PERIOD":"95.592","TLE_LINE2":"2 48029  53.0534 242.4881 0001899  75.4758 284.6442 15.06395778 47975","SITE":"AFETR","ARG_OF_PERICENTER":"75.4758","TIME_SYSTEM":"UTC","MEAN_MOTION_DDOT":"0.0000000000000","MEAN_ANOMALY":"284.6442","OBJECT_ID":"2021-024BE","FILE":"3283711","MEAN_MOTION":"15.06395778","RCS_SIZE":"LARGE","GP_ID":"194642921","PERIAPSIS":"545.911","ELEMENT_SET_NO":"999"},{"CENTER_NAME":"EARTH","MEAN_ELEMENT_THEORY":"SGP4","TLE_LINE1":"1 48030U 21024BF  22025.84263541 -.00000092  00000-0  12726-4 0  9992","REF_FRAME":"TEME","OBJECT_TYPE":"PAYLOAD","REV_AT_EPOCH":"4783","MEAN_MOTION_DOT":"-0.00000092","EPOCH":"2022-01-25T20:13:23.699424","LAUNCH_DATE":"2021-03-24","COUNTRY_CODE":"US","DECAY_DATE":null,"RA_OF_ASC_NODE":"247.6375","NORAD_CAT_ID":"48030","APOAPSIS":"548.532","ECCENTRICITY":"0.00019050","OBJECT_NAME":"STARLINK-2268","BSTAR":"0.00001272600000","INCLINATION":"53.0540","CLASSIFICATION_TYPE":"U","EPHEMERIS_TYPE":"0","SEMIMAJOR_AXIS":"6925.348","GP_ID":"194644172","ELEMENT_SET_NO":"999","PERIAPSIS":"545.894","FILE":"3283711","MEAN_MOTION":"15.06400133","RCS_SIZE":"LARGE","MEAN_MOTION_DDOT":"0.0000000000000","MEAN_ANOMALY":"292.4259","OBJECT_ID":"2021-024BF","PERIOD":"95.592","TLE_LINE2":"2 48030  53.0540 247.6375 0001905  67.6932 292.4259 15.06400133 47834","SITE":"AFETR","TIME_SYSTEM":"UTC","ARG_OF_PERICENTER":"67.6932"},{"APOAPSIS":"548.239","ECCENTRICITY":"0.00015020","NORAD_CAT_ID":"48031","OBJECT_NAME":"STARLINK-2267","SEMIMAJOR_AXIS":"6925.334","BSTAR":"-0.00170740000000","INCLINATION":"53.0494","EPHEMERIS_TYPE":"0","CLASSIFICATION_TYPE":"U","COUNTRY_CODE":"US","DECAY_DATE":null,"RA_OF_ASC_NODE":"132.3193","REF_FRAME":"TEME","MEAN_ELEMENT_THEORY":"SGP4","TLE_LINE1":"1 48031U 21024BG  22025.91667824 -.00025626  00000-0 -17074-2 0  9993","MEAN_MOTION_DOT":"-0.00025626","OBJECT_TYPE":"PAYLOAD","EPOCH":"2022-01-25T22:00:00.999936","REV_AT_EPOCH":"360","LAUNCH_DATE":"2021-03-24","CENTER_NAME":"EARTH","PERIOD":"95.592","TLE_LINE2":"2 48031  53.0494 132.3193 0001502  56.9500 137.4150 15.06404875  3608","SITE":"AFETR","ARG_OF_PERICENTER":"56.9500","TIME_SYSTEM":"UTC","MEAN_MOTION_DDOT":"0.0000000000000","MEAN_ANOMALY":"137.4150","OBJECT_ID":"2021-024BG","FILE":"3283711","MEAN_MOTION":"15.06404875","RCS_SIZE":"LARGE","GP_ID":"194643923","PERIAPSIS":"546.158","ELEMENT_SET_NO":"999"},{"MEAN_ANOMALY":"292.0087","MEAN_MOTION_DDOT":"0.0000000000000","OBJECT_ID":"2021-024BJ","TLE_LINE2":"2 48033  53.0596 242.4388 0002418  68.1159 292.0087 15.06401893 47976","PERIOD":"95.592","TIME_SYSTEM":"UTC","ARG_OF_PERICENTER":"68.1159","SITE":"AFETR","ELEMENT_SET_NO":"999","PERIAPSIS":"545.533","GP_ID":"194643171","FILE":"3283711","RCS_SIZE":"LARGE","MEAN_MOTION":"15.06401893","COUNTRY_CODE":"US","RA_OF_ASC_NODE":"242.4388","DECAY_DATE":null,"NORAD_CAT_ID":"48033","APOAPSIS":"548.882","ECCENTRICITY":"0.00024180","BSTAR":"-0.00010031000000","INCLINATION":"53.0596","CLASSIFICATION_TYPE":"U","EPHEMERIS_TYPE":"0","SEMIMAJOR_AXIS":"6925.343","OBJECT_NAME":"STARLINK-2286","CENTER_NAME":"EARTH","MEAN_MOTION_DOT":"-0.00001776","OBJECT_TYPE":"PAYLOAD","EPOCH":"2022-01-25T20:53:52.145088","REV_AT_EPOCH":"4797","TLE_LINE1":"1 48033U 21024BJ  22025.87074242 -.00001776  00000-0 -10031-3 0  9993","MEAN_ELEMENT_THEORY":"SGP4","REF_FRAME":"TEME","LAUNCH_DATE":"2021-03-24"}];
